{"type":"FeatureCollection","features":[{"type":"Feature","properties":{"name":"PCMC Bhavan","kind":"metro"},"geometry":{"type":"Point","coordinates":[73.802,18.6297]}},{"type":"Feature","properties":{"name":"Sant Tukaram Nagar","kind":"metro"},"geometry":{"type":"Point","coordinates":[73.8038,18.619]}},{"type":"Feature","properties":{"name":"Nashik Phata","kind":"metro"},"geometry":{"type":"Point","coordinates":[73.8214,18.6066]}},{"type":"Feature","properties":{"name":"Kasarwadi","kind":"metro"},"geometry":{"type":"Point","coordinates":[73.8221,18.5942]}},{"type":"Feature","properties":{"name":"Phugewadi","kind":"metro"},"geometry":{"type":"Point","coordinates":[73.8262,18.5834]}},{"type":"Feature","properties":{"name":"Dapodi","kind":"metro"},"geometry":{"type":"Point","coordinates":[73.8319,18.5742]}},{"type":"Feature","properties":{"name":"Bopodi","kind":"metro"},"geometry":{"type":"Point","coordinates":[73.835,18.563]}},{"type":"Feature","properties":{"name":"Khadki","kind":"metro"},"geometry":{"type":"Point","coordinates":[73.841,18.5537]}},{"type":"Feature","properties":{"name":"Range Hills","kind":"metro"},"geometry":{"type":"Point","coordinates":[73.8444,18.5442]}},{"type":"Feature","properties":{"name":"Shivaji Nagar","kind":"metro"},"geometry":{"type":"Point","coordinates":[73.8475,18.5309]}},{"type":"Feature","properties":{"name":"Civil Court","kind":"metro"},"geometry":{"type":"Point","coordinates":[73.8545,18.5283]}},{"type":"Feature","properties":{"name":"Budhwar Peth","kind":"metro"},"geometry":{"type":"Point","coordinates":[73.8587,18.5224]}},{"type":"Feature","properties":{"name":"Mandai","kind":"metro"},"geometry":{"type":"Point","coordinates":[73.8599,18.5157]}},{"type":"Feature","properties":{"name":"Swargate","kind":"metro"},"geometry":{"type":"Point","coordinates":[73.8636,18.5018]}},{"type":"Feature","properties":{"name":"Vanaz","kind":"metro"},"geometry":{"type":"Point","coordinates":[73.8081,18.5079]}},{"type":"Feature","properties":{"name":"Anand Nagar","kind":"metro"},"geometry":{"type":"Point","coordinates":[73.816,18.51]}},{"type":"Feature","properties":{"name":"Ideal Colony","kind":"metro"},"geometry":{"type":"Point","coordinates":[73.823,18.5115]}},{"type":"Feature","properties":{"name":"Nal Stop","kind":"metro"},"geometry":{"type":"Point","coordinates":[73.8296,18.5128]}},{"type":"Feature","properties":{"name":"Garware College","kind":"metro"},"geometry":{"type":"Point","coordinates":[73.8402,18.5136]}},{"type":"Feature","properties":{"name":"Deccan Gymkhana","kind":"metro"},"geometry":{"type":"Point","coordinates":[73.8412,18.5178]}},{"type":"Feature","properties":{"name":"Chhatrapati Sambhaji Udyan","kind":"metro"},"geometry":{"type":"Point","coordinates":[73.845,18.5215]}},{"type":"Feature","properties":{"name":"Mangalwar Peth","kind":"metro"},"geometry":{"type":"Point","coordinates":[73.862,18.529]}},{"type":"Feature","properties":{"name":"Pune Railway Station","kind":"metro"},"geometry":{"type":"Point","coordinates":[73.8742,18.5287]}},{"type":"Feature","properties":{"name":"Ruby Hall Clinic","kind":"metro"},"geometry":{"type":"Point","coordinates":[73.8763,18.5324]}},{"type":"Feature","properties":{"name":"Bund Garden","kind":"metro"},"geometry":{"type":"Point","coordinates":[73.8848,18.5365]}},{"type":"Feature","properties":{"name":"Yerwada","kind":"metro"},"geometry":{"type":"Point","coordinates":[73.893,18.546]}},{"type":"Feature","properties":{"name":"Kalyani Nagar","kind":"metro"},"geometry":{"type":"Point","coordinates":[73.903,18.5495]}},{"type":"Feature","properties":{"name":"Ramwadi","kind":"metro"},"geometry":{"type":"Point","coordinates":[73.9145,18.5538]}},{"type":"Feature","properties":{"name":"Hinjewadi","kind":"metro"},"geometry":{"type":"Point","coordinates":[73.7389,18.5913]}},{"type":"Feature","properties":{"name":"Wakad","kind":"metro"},"geometry":{"type":"Point","coordinates":[73.762,18.599]}},{"type":"Feature","properties":{"name":"Balewadi","kind":"metro"},"geometry":{"type":"Point","coordinates":[73.772,18.585]}},{"type":"Feature","properties":{"name":"Baner","kind":"metro"},"geometry":{"type":"Point","coordinates":[73.7868,18.559]}},{"type":"Feature","properties":{"name":"Aundh","kind":"metro"},"geometry":{"type":"Point","coordinates":[73.807,18.56]}}]}
