{"type":"FeatureCollection","features":[{"type":"Feature","properties":{"name":"Purple Line (PCMC - Swargate)","group":"metro","status":"operational","color":"#9333ea"},"geometry":{"type":"LineString","coordinates":[[73.802,18.6297],[73.8038,18.619],[73.812,18.6125],[73.8214,18.6066],[73.8221,18.5942],[73.8262,18.5834],[73.8319,18.5742],[73.835,18.563],[73.841,18.5537],[73.8444,18.5442],[73.8475,18.5309],[73.8545,18.5283],[73.8587,18.5224],[73.8599,18.5157],[73.8636,18.5018]]}},{"type":"Feature","properties":{"name":"Aqua Line (Vanaz - Ramwadi)","group":"metro","status":"operational","color":"#06b6d4"},"geometry":{"type":"LineString","coordinates":[[73.8081,18.5079],[73.816,18.51],[73.823,18.5115],[73.8296,18.5128],[73.8402,18.5136],[73.8412,18.5178],[73.845,18.5215],[73.8545,18.5283],[73.862,18.529],[73.8742,18.5287],[73.8763,18.5324],[73.8848,18.5365],[73.893,18.546],[73.903,18.5495],[73.9145,18.5538]]}},{"type":"Feature","properties":{"name":"Line 3 (Hinjewadi - Shivajinagar, upcoming)","group":"metro","status":"upcoming","color":"#f97316"},"geometry":{"type":"LineString","coordinates":[[73.722,18.582],[73.7389,18.5913],[73.762,18.599],[73.772,18.585],[73.778,18.574],[73.7868,18.559],[73.807,18.56],[73.824,18.552],[73.838,18.539],[73.8475,18.5309]]}}]}
